{
    "week": 295,
    "satellites": [
        {
            "Name": "COSMOS 2485 (747)",
            "Line1": "1 39155U 13019A   24339.55595616  .00000027  00000+0  00000+0 0  9997",
            "Line2": "2 39155  65.1218  92.4310 0023807 228.6812 131.1110  2.13104325 90352",
            "SatelliteNumber": "39155",
            "Classification": "U",
            "LaunchYear": "13",
            "LaunchNumber": "019",
            "PieceOfLaunch": "A",
            "EpochYear": "24",
            "EpochDay": 339.55595616,
            "FirstDerivativeMeanMotion": 2.7e-07,
            "SecondDerivativeMeanMotion": "00000+0",
            "BSTAR": "00000+0",
            "SetNumber": "999",
            "Inclination": 65.1218,
            "RAAN": 92.431,
            "Eccentricity": 0.0023807,
            "ArgumentOfPerigee": 228.6812,
            "MeanAnomaly": 131.111,
            "MeanMotion": 2.13104325,
            "RevolutionNumber": "9035"
        },
        {
            "Name": "COSMOS 2492 (754)",
            "Line1": "1 39620U 14012A   24339.51130818 -.00000026  00000+0  00000+0 0  9993",
            "Line2": "2 39620  65.6007 332.8926 0014576 311.3597  48.5319  2.13103145 83316",
            "SatelliteNumber": "39620",
            "Classification": "U",
            "LaunchYear": "14",
            "LaunchNumber": "012",
            "PieceOfLaunch": "A",
            "EpochYear": "24",
            "EpochDay": 339.51130818,
            "FirstDerivativeMeanMotion": -2.6e-07,
            "SecondDerivativeMeanMotion": "00000+0",
            "BSTAR": "00000+0",
            "SetNumber": "999",
            "Inclination": 65.6007,
            "RAAN": 332.8926,
            "Eccentricity": 0.0014576,
            "ArgumentOfPerigee": 311.3597,
            "MeanAnomaly": 48.5319,
            "MeanMotion": 2.13103145,
            "RevolutionNumber": "8331"
        },
        {
            "Name": "COSMOS 2500 (755)",
            "Line1": "1 40001U 14032A   24339.21917871 -.00000027  00000+0  00000+0 0  9990",
            "Line2": "2 40001  65.5376 332.6942 0008269 222.0245 137.9291  2.13105961 81526",
            "SatelliteNumber": "40001",
            "Classification": "U",
            "LaunchYear": "14",
            "LaunchNumber": "032",
            "PieceOfLaunch": "A",
            "EpochYear": "24",
            "EpochDay": 339.21917871,
            "FirstDerivativeMeanMotion": -2.7e-07,
            "SecondDerivativeMeanMotion": "00000+0",
            "BSTAR": "00000+0",
            "SetNumber": "999",
            "Inclination": 65.5376,
            "RAAN": 332.6942,
            "Eccentricity": 0.0008269,
            "ArgumentOfPerigee": 222.0245,
            "MeanAnomaly": 137.9291,
            "MeanMotion": 2.13105961,
            "RevolutionNumber": "8152"
        },
        {
            "Name": "COSMOS 2501 (702K)",
            "Line1": "1 40315U 14075A   24338.06665168  .00000080  00000+0  00000+0 0  9994",
            "Line2": "2 40315  63.6161 209.8114 0019196 204.9135 155.0940  2.13101408 77898",
            "SatelliteNumber": "40315",
            "Classification": "U",
            "LaunchYear": "14",
            "LaunchNumber": "075",
            "PieceOfLaunch": "A",
            "EpochYear": "24",
            "EpochDay": 338.06665168,
            "FirstDerivativeMeanMotion": 8e-07,
            "SecondDerivativeMeanMotion": "00000+0",
            "BSTAR": "00000+0",
            "SetNumber": "999",
            "Inclination": 63.6161,
            "RAAN": 209.8114,
            "Eccentricity": 0.0019196,
            "ArgumentOfPerigee": 204.9135,
            "MeanAnomaly": 155.094,
            "MeanMotion": 2.13101408,
            "RevolutionNumber": "7789"
        },
        {
            "Name": "COSMOS 2514 (751)",
            "Line1": "1 41330U 16008A   24339.45729954 -.00000026  00000+0  00000+0 0  9999",
            "Line2": "2 41330  65.3310 332.1525 0012336 222.4892 137.4315  2.13102580 68691",
            "SatelliteNumber": "41330",
            "Classification": "U",
            "LaunchYear": "16",
            "LaunchNumber": "008",
            "PieceOfLaunch": "A",
            "EpochYear": "24",
            "EpochDay": 339.45729954,
            "FirstDerivativeMeanMotion": -2.6e-07,
            "SecondDerivativeMeanMotion": "00000+0",
            "BSTAR": "00000+0",
            "SetNumber": "999",
            "Inclination": 65.331,
            "RAAN": 332.1525,
            "Eccentricity": 0.0012336,
            "ArgumentOfPerigee": 222.4892,
            "MeanAnomaly": 137.4315,
            "MeanMotion": 2.1310258,
            "RevolutionNumber": "6869"
        },
        {
            "Name": "COSMOS 2522 (752)",
            "Line1": "1 42939U 17055A   24337.88931430  .00000079  00000+0  00000+0 0  9994",
            "Line2": "2 42939  64.0774 211.0053 0006277 231.2167 128.8279  2.13101926 56017",
            "SatelliteNumber": "42939",
            "Classification": "U",
            "LaunchYear": "17",
            "LaunchNumber": "055",
            "PieceOfLaunch": "A",
            "EpochYear": "24",
            "EpochDay": 337.8893143,
            "FirstDerivativeMeanMotion": 7.9e-07,
            "SecondDerivativeMeanMotion": "00000+0",
            "BSTAR": "00000+0",
            "SetNumber": "999",
            "Inclination": 64.0774,
            "RAAN": 211.0053,
            "Eccentricity": 0.0006277,
            "ArgumentOfPerigee": 231.2167,
            "MeanAnomaly": 128.8279,
            "MeanMotion": 2.13101926,
            "RevolutionNumber": "5601"
        },
        {
            "Name": "COSMOS 2527 (756)",
            "Line1": "1 43508U 18053A   24339.25649440  .00000025  00000+0  00000+0 0  9997",
            "Line2": "2 43508  65.2811  92.6287 0008576 221.6422 138.2879  2.13102236 50344",
            "SatelliteNumber": "43508",
            "Classification": "U",
            "LaunchYear": "18",
            "LaunchNumber": "053",
            "PieceOfLaunch": "A",
            "EpochYear": "24",
            "EpochDay": 339.2564944,
            "FirstDerivativeMeanMotion": 2.5e-07,
            "SecondDerivativeMeanMotion": "00000+0",
            "BSTAR": "00000+0",
            "SetNumber": "999",
            "Inclination": 65.2811,
            "RAAN": 92.6287,
            "Eccentricity": 0.0008576,
            "ArgumentOfPerigee": 221.6422,
            "MeanAnomaly": 138.2879,
            "MeanMotion": 2.13102236,
            "RevolutionNumber": "5034"
        },
        {
            "Name": "COSMOS 2529 (757)",
            "Line1": "1 43687U 18086A   24337.94743256  .00000079  00000+0  00000+0 0  9994",
            "Line2": "2 43687  64.2929 211.5615 0007450 260.6372  99.3792  2.13102008 47327",
            "SatelliteNumber": "43687",
            "Classification": "U",
            "LaunchYear": "18",
            "LaunchNumber": "086",
            "PieceOfLaunch": "A",
            "EpochYear": "24",
            "EpochDay": 337.94743256,
            "FirstDerivativeMeanMotion": 7.9e-07,
            "SecondDerivativeMeanMotion": "00000+0",
            "BSTAR": "00000+0",
            "SetNumber": "999",
            "Inclination": 64.2929,
            "RAAN": 211.5615,
            "Eccentricity": 0.000745,
            "ArgumentOfPerigee": 260.6372,
            "MeanAnomaly": 99.3792,
            "MeanMotion": 2.13102008,
            "RevolutionNumber": "4732"
        },
        {
            "Name": "COSMOS 2534 (758)",
            "Line1": "1 44299U 19030A   24339.42063579  .00000072  00000+0  00000+0 0  9995",
            "Line2": "2 44299  64.3660 211.4811 0009629 287.7235 256.7216  2.13102052 42992",
            "SatelliteNumber": "44299",
            "Classification": "U",
            "LaunchYear": "19",
            "LaunchNumber": "030",
            "PieceOfLaunch": "A",
            "EpochYear": "24",
            "EpochDay": 339.42063579,
            "FirstDerivativeMeanMotion": 7.2e-07,
            "SecondDerivativeMeanMotion": "00000+0",
            "BSTAR": "00000+0",
            "SetNumber": "999",
            "Inclination": 64.366,
            "RAAN": 211.4811,
            "Eccentricity": 0.0009629,
            "ArgumentOfPerigee": 287.7235,
            "MeanAnomaly": 256.7216,
            "MeanMotion": 2.13102052,
            "RevolutionNumber": "4299"
        },
        {
            "Name": "COSMOS 2544 (759)",
            "Line1": "1 44850U 19088A   24339.20069392  .00000025  00000+0  00000+0 0  9994",
            "Line2": "2 44850  65.2681  92.4644 0013090 248.8717 110.9838  2.13101956 38784",
            "SatelliteNumber": "44850",
            "Classification": "U",
            "LaunchYear": "19",
            "LaunchNumber": "088",
            "PieceOfLaunch": "A",
            "EpochYear": "24",
            "EpochDay": 339.20069392,
            "FirstDerivativeMeanMotion": 2.5e-07,
            "SecondDerivativeMeanMotion": "00000+0",
            "BSTAR": "00000+0",
            "SetNumber": "999",
            "Inclination": 65.2681,
            "RAAN": 92.4644,
            "Eccentricity": 0.001309,
            "ArgumentOfPerigee": 248.8717,
            "MeanAnomaly": 110.9838,
            "MeanMotion": 2.13101956,
            "RevolutionNumber": "3878"
        }
    ]
}